[{"OBJECT_NAME":"TIANMU-1 09","OBJECT_ID":"2023-101C","EPOCH":"2026-03-09T22:17:34.703232","MEAN_MOTION":15.29080822,"ECCENTRICITY":0.00049013,"INCLINATION":97.267,"RA_OF_ASC_NODE":121.1263,"ARG_OF_PERICENTER":139.4293,"MEAN_ANOMALY":220.7314,"EPHEMERIS_TYPE":0,"CLASSIFICATION_TYPE":"U","NORAD_CAT_ID":57401,"ELEMENT_SET_NO":999,"REV_AT_EPOCH":14647,"BSTAR":0.00030540035,"MEAN_MOTION_DOT":8.553e-5,"MEAN_MOTION_DDOT":0},{"OBJECT_NAME":"STARLINK-31365","OBJECT_ID":"2024-031J","EPOCH":"2026-03-09T21:19:19.090560","MEAN_MOTION":15.30184833,"ECCENTRICITY":0.00011898,"INCLINATION":53.1607,"RA_OF_ASC_NODE":295.7674,"ARG_OF_PERICENTER":93.6804,"MEAN_ANOMALY":266.4333,"EPHEMERIS_TYPE":0,"CLASSIFICATION_TYPE":"U","NORAD_CAT_ID":58973,"ELEMENT_SET_NO":999,"REV_AT_EPOCH":11656,"BSTAR":2.0937015e-5,"MEAN_MOTION_DOT":2.61e-6,"MEAN_MOTION_DDOT":0}]
